ICEYE-X40               
1 60549U 24149CK  26197.76010154  .00001514  00000+0  13287-3 0  9997
2 60549  97.6805 273.7800 0003829   2.4627 357.6613 14.98078302104504
ICEYE-X49               
1 62384U 24247H   26198.00456845  .00001609  00000+0  10242-3 0  9997
2 62384  44.9979 198.1210 0000990 239.0756 121.0024 15.13519894 86694
ICEYE-X47               
1 62389U 24247N   26198.04649882  .00000935  00000+0  65477-4 0  9993
2 62389  44.9960 197.4910 0001219 359.9407   0.1470 15.13489047 86708
ICEYE-X42               
1 62698U 25009CT  26197.78591696  .00000841  00000+0  88759-4 0  9996
2 62698  97.7390 275.5671 0001256  98.0578 262.0783 14.91857238 81704
ICEYE-X41               
1 62700U 25009CV  26197.75106364  .00001570  00000+0  14176-3 0  9992
2 62700  97.7059 276.8487 0000237 244.3370 115.7827 14.96917644 81833
ICEYE-X45               
1 62705U 25009DA  26197.79801544  .00004470  00000+0  35639-3 0  9992
2 62705  97.8415 284.7290 0000898  58.4205 301.7106 15.00842739 82127
ICEYE-X44               
1 62707U 25009DC  26198.18227268  .00001453  00000+0  13409-3 0  9992
2 62707  97.7058 276.8351 0002427  68.0118 292.1361 14.96173968104420
ICEYE-X48               
1 63253U 25052AV  26197.71321321  .00001883  00000+0  16382-3 0  9990
2 63253  97.6839  89.4469 0004114 100.6152 259.5534 14.98131757 73096
ICEYE-X50               
1 63255U 25052AX  26198.27027959  .00000451  00000+0  46026-4 0  9993
2 63255  97.6854  89.5836 0003437  97.3861 262.7751 14.95368433 73143
ICEYE-X51               
1 63257U 25052AZ  26198.19223184  .00002441  00000+0  19662-3 0  9990
2 63257  97.7612  93.2352 0002048  66.2805 293.8633 15.00879358 73305
ICEYE-X46               
1 63258U 25052BA  26197.66477112  .00000798  00000+0  77462-4 0  9990
2 63258  97.6857  88.9890 0001675  80.8155 279.3256 14.95370231 73050
ICEYE-X54               
1 64570U 25135AU  26198.28444169  .00001264  00000+0  12166-3 0  9993
2 64570  97.7748 312.4208 0002194 175.2831 184.8410 14.94738430 58393
ICEYE-X52               
1 64572U 25135AW  26198.28381076  .00000792  00000+0  80324-4 0  9999
2 64572  97.7770 312.2066 0001406 181.0757 179.0460 14.93656814 58370
ICEYE-X56               
1 64574U 25135AY  26198.27043490  .00001976  00000+0  18244-3 0  9991
2 64574  97.7770 312.9988 0001532 180.9998 179.1220 14.95770435 58426
ICEYE-X57               
1 64578U 25135BC  26198.26807404  .00002415  00000+0  19464-3 0  9991
2 64578  97.8028 314.8310 0002139  56.7289 303.4139 15.00871676 58533
ICEYE-X55               
1 64581U 25135BF  26198.27844734  .00001668  00000+0  15641-3 0  9995
2 64581  97.7769 312.8311 0001978 223.9052 136.2012 14.95369977 58411
