{"fetched_at":"2026-07-17T17:38:20.702Z","source":"https://celestrak.org/NORAD/elements/gp.php?NAME=ICEYE&FORMAT=JSON","constellation":"iceye","records":[{"OBJECT_NAME":"ICEYE-X40","OBJECT_ID":"2024-149CK","EPOCH":"2026-07-16T18:14:32.773056","CLASSIFICATION_TYPE":"U","MEAN_MOTION":14.98078302,"ECCENTRICITY":0.0003829,"INCLINATION":97.6805,"RA_OF_ASC_NODE":273.78,"ARG_OF_PERICENTER":2.4627,"MEAN_ANOMALY":357.6613,"EPHEMERIS_TYPE":0,"NORAD_CAT_ID":60549,"ELEMENT_SET_NO":999,"REV_AT_EPOCH":10450,"BSTAR":0.00013287154,"MEAN_MOTION_DOT":0.00001514,"MEAN_MOTION_DDOT":0},{"OBJECT_NAME":"ICEYE-X49","OBJECT_ID":"2024-247H","EPOCH":"2026-07-17T00:06:34.714080","CLASSIFICATION_TYPE":"U","MEAN_MOTION":15.13519894,"ECCENTRICITY":0.00009902,"INCLINATION":44.9979,"RA_OF_ASC_NODE":198.121,"ARG_OF_PERICENTER":239.0756,"MEAN_ANOMALY":121.0024,"EPHEMERIS_TYPE":0,"NORAD_CAT_ID":62384,"ELEMENT_SET_NO":999,"REV_AT_EPOCH":8669,"BSTAR":0.00010242181,"MEAN_MOTION_DOT":0.00001609,"MEAN_MOTION_DDOT":0},{"OBJECT_NAME":"ICEYE-X47","OBJECT_ID":"2024-247N","EPOCH":"2026-07-17T01:06:57.498048","CLASSIFICATION_TYPE":"U","MEAN_MOTION":15.13489047,"ECCENTRICITY":0.00012193,"INCLINATION":44.996,"RA_OF_ASC_NODE":197.491,"ARG_OF_PERICENTER":359.9407,"MEAN_ANOMALY":0.147,"EPHEMERIS_TYPE":0,"NORAD_CAT_ID":62389,"ELEMENT_SET_NO":999,"REV_AT_EPOCH":8670,"BSTAR":0.000065477499,"MEAN_MOTION_DOT":0.00000935,"MEAN_MOTION_DDOT":0},{"OBJECT_NAME":"ICEYE-X42","OBJECT_ID":"2025-009CT","EPOCH":"2026-07-16T18:51:43.225344","CLASSIFICATION_TYPE":"U","MEAN_MOTION":14.91857238,"ECCENTRICITY":0.00012561,"INCLINATION":97.739,"RA_OF_ASC_NODE":275.5671,"ARG_OF_PERICENTER":98.0578,"MEAN_ANOMALY":262.0783,"EPHEMERIS_TYPE":0,"NORAD_CAT_ID":62698,"ELEMENT_SET_NO":999,"REV_AT_EPOCH":8170,"BSTAR":0.00008875926,"MEAN_MOTION_DOT":0.00000841,"MEAN_MOTION_DDOT":0},{"OBJECT_NAME":"ICEYE-X41","OBJECT_ID":"2025-009CV","EPOCH":"2026-07-16T18:01:31.898496","CLASSIFICATION_TYPE":"U","MEAN_MOTION":14.96917644,"ECCENTRICITY":0.00002374,"INCLINATION":97.7059,"RA_OF_ASC_NODE":276.8487,"ARG_OF_PERICENTER":244.337,"MEAN_ANOMALY":115.7827,"EPHEMERIS_TYPE":0,"NORAD_CAT_ID":62700,"ELEMENT_SET_NO":999,"REV_AT_EPOCH":8183,"BSTAR":0.00014175884,"MEAN_MOTION_DOT":0.0000157,"MEAN_MOTION_DDOT":0},{"OBJECT_NAME":"ICEYE-X45","OBJECT_ID":"2025-009DA","EPOCH":"2026-07-16T19:09:08.534016","CLASSIFICATION_TYPE":"U","MEAN_MOTION":15.00842739,"ECCENTRICITY":0.00008983,"INCLINATION":97.8415,"RA_OF_ASC_NODE":284.729,"ARG_OF_PERICENTER":58.4205,"MEAN_ANOMALY":301.7106,"EPHEMERIS_TYPE":0,"NORAD_CAT_ID":62705,"ELEMENT_SET_NO":999,"REV_AT_EPOCH":8212,"BSTAR":0.00035638824,"MEAN_MOTION_DOT":0.0000447,"MEAN_MOTION_DDOT":0},{"OBJECT_NAME":"ICEYE-X44","OBJECT_ID":"2025-009DC","EPOCH":"2026-07-17T04:22:28.359552","CLASSIFICATION_TYPE":"U","MEAN_MOTION":14.96173968,"ECCENTRICITY":0.00024273,"INCLINATION":97.7058,"RA_OF_ASC_NODE":276.8351,"ARG_OF_PERICENTER":68.0118,"MEAN_ANOMALY":292.1361,"EPHEMERIS_TYPE":0,"NORAD_CAT_ID":62707,"ELEMENT_SET_NO":999,"REV_AT_EPOCH":10442,"BSTAR":0.00013408541,"MEAN_MOTION_DOT":0.00001453,"MEAN_MOTION_DDOT":0},{"OBJECT_NAME":"ICEYE-X48","OBJECT_ID":"2025-052AV","EPOCH":"2026-07-16T17:07:01.621344","CLASSIFICATION_TYPE":"U","MEAN_MOTION":14.98131757,"ECCENTRICITY":0.00041149,"INCLINATION":97.6839,"RA_OF_ASC_NODE":89.4469,"ARG_OF_PERICENTER":100.6152,"MEAN_ANOMALY":259.5534,"EPHEMERIS_TYPE":0,"NORAD_CAT_ID":63253,"ELEMENT_SET_NO":999,"REV_AT_EPOCH":7309,"BSTAR":0.00016382326,"MEAN_MOTION_DOT":0.00001883,"MEAN_MOTION_DDOT":0},{"OBJECT_NAME":"ICEYE-X50","OBJECT_ID":"2025-052AX","EPOCH":"2026-07-17T06:29:12.156576","CLASSIFICATION_TYPE":"U","MEAN_MOTION":14.95368433,"ECCENTRICITY":0.00034376,"INCLINATION":97.6854,"RA_OF_ASC_NODE":89.5836,"ARG_OF_PERICENTER":97.3861,"MEAN_ANOMALY":262.7751,"EPHEMERIS_TYPE":0,"NORAD_CAT_ID":63255,"ELEMENT_SET_NO":999,"REV_AT_EPOCH":7314,"BSTAR":0.000046025868,"MEAN_MOTION_DOT":0.00000451,"MEAN_MOTION_DDOT":0},{"OBJECT_NAME":"ICEYE-X51","OBJECT_ID":"2025-052AZ","EPOCH":"2026-07-17T04:36:48.830976","CLASSIFICATION_TYPE":"U","MEAN_MOTION":15.00879358,"ECCENTRICITY":0.00020484,"INCLINATION":97.7612,"RA_OF_ASC_NODE":93.2352,"ARG_OF_PERICENTER":66.2805,"MEAN_ANOMALY":293.8633,"EPHEMERIS_TYPE":0,"NORAD_CAT_ID":63257,"ELEMENT_SET_NO":999,"REV_AT_EPOCH":7330,"BSTAR":0.00019661506,"MEAN_MOTION_DOT":0.00002441,"MEAN_MOTION_DDOT":0},{"OBJECT_NAME":"ICEYE-X46","OBJECT_ID":"2025-052BA","EPOCH":"2026-07-16T15:57:16.224768","CLASSIFICATION_TYPE":"U","MEAN_MOTION":14.95370231,"ECCENTRICITY":0.0001675,"INCLINATION":97.6857,"RA_OF_ASC_NODE":88.989,"ARG_OF_PERICENTER":80.8155,"MEAN_ANOMALY":279.3256,"EPHEMERIS_TYPE":0,"NORAD_CAT_ID":63258,"ELEMENT_SET_NO":999,"REV_AT_EPOCH":7305,"BSTAR":0.000077462324,"MEAN_MOTION_DOT":0.00000798,"MEAN_MOTION_DDOT":0},{"OBJECT_NAME":"ICEYE-X54","OBJECT_ID":"2025-135AU","EPOCH":"2026-07-17T06:49:35.762016","CLASSIFICATION_TYPE":"U","MEAN_MOTION":14.9473843,"ECCENTRICITY":0.00021945,"INCLINATION":97.7748,"RA_OF_ASC_NODE":312.4208,"ARG_OF_PERICENTER":175.2831,"MEAN_ANOMALY":184.841,"EPHEMERIS_TYPE":0,"NORAD_CAT_ID":64570,"ELEMENT_SET_NO":999,"REV_AT_EPOCH":5839,"BSTAR":0.00012165663,"MEAN_MOTION_DOT":0.00001264,"MEAN_MOTION_DDOT":0},{"OBJECT_NAME":"ICEYE-X52","OBJECT_ID":"2025-135AW","EPOCH":"2026-07-17T06:48:41.249664","CLASSIFICATION_TYPE":"U","MEAN_MOTION":14.93656814,"ECCENTRICITY":0.00014069,"INCLINATION":97.777,"RA_OF_ASC_NODE":312.2066,"ARG_OF_PERICENTER":181.0757,"MEAN_ANOMALY":179.046,"EPHEMERIS_TYPE":0,"NORAD_CAT_ID":64572,"ELEMENT_SET_NO":999,"REV_AT_EPOCH":5837,"BSTAR":0.000080323943,"MEAN_MOTION_DOT":0.00000792,"MEAN_MOTION_DDOT":0},{"OBJECT_NAME":"ICEYE-X56","OBJECT_ID":"2025-135AY","EPOCH":"2026-07-17T06:29:25.575360","CLASSIFICATION_TYPE":"U","MEAN_MOTION":14.95770435,"ECCENTRICITY":0.0001532,"INCLINATION":97.777,"RA_OF_ASC_NODE":312.9988,"ARG_OF_PERICENTER":180.9998,"MEAN_ANOMALY":179.122,"EPHEMERIS_TYPE":0,"NORAD_CAT_ID":64574,"ELEMENT_SET_NO":999,"REV_AT_EPOCH":5842,"BSTAR":0.0001824372,"MEAN_MOTION_DOT":0.00001976,"MEAN_MOTION_DDOT":0},{"OBJECT_NAME":"ICEYE-X57","OBJECT_ID":"2025-135BC","EPOCH":"2026-07-17T06:26:01.597056","CLASSIFICATION_TYPE":"U","MEAN_MOTION":15.00871676,"ECCENTRICITY":0.00021392,"INCLINATION":97.8028,"RA_OF_ASC_NODE":314.831,"ARG_OF_PERICENTER":56.7289,"MEAN_ANOMALY":303.4139,"EPHEMERIS_TYPE":0,"NORAD_CAT_ID":64578,"ELEMENT_SET_NO":999,"REV_AT_EPOCH":5853,"BSTAR":0.00019463847,"MEAN_MOTION_DOT":0.00002415,"MEAN_MOTION_DDOT":0},{"OBJECT_NAME":"ICEYE-X55","OBJECT_ID":"2025-135BF","EPOCH":"2026-07-17T06:40:57.850176","CLASSIFICATION_TYPE":"U","MEAN_MOTION":14.95369977,"ECCENTRICITY":0.00019786,"INCLINATION":97.7769,"RA_OF_ASC_NODE":312.8311,"ARG_OF_PERICENTER":223.9052,"MEAN_ANOMALY":136.2012,"EPHEMERIS_TYPE":0,"NORAD_CAT_ID":64581,"ELEMENT_SET_NO":999,"REV_AT_EPOCH":5841,"BSTAR":0.00015641229,"MEAN_MOTION_DOT":0.00001668,"MEAN_MOTION_DDOT":0}]}
